UNKNOWN                 
1 82820U          22237.47614176  .00000764  00000+0  36170-3 0  9998
2 82820  99.8102 239.6788 0059118 172.8670 187.3359 14.22236517453673
UNKNOWN                 
1 82829U          22235.31428841 -.00000079  00000+0 -10282-2 0  9996
2 82829  65.0975 196.6367 0180532 242.2422 273.3256 11.28933062349760
UNKNOWN                 
1 82854U          22235.42821104  .00000607  00000+0  51310-3 0  9998
2 82854  82.6902 286.1291 0137501  87.1425 274.5461 13.81830015913090
UNKNOWN                 
1 82873U          22237.02089685  .00000850  00000+0  48907-3 0  9995
2 82873  99.9944 323.9690 0044976   2.4510 357.6871 14.12007785450380
UNKNOWN                 
1 82875U          22237.27406359  .00000061  00000+0  29555-4 0  9998
2 82875  98.6066 244.2713 0393567 134.2386 229.1817 14.11115778374235
UNKNOWN                 
1 82893U          22236.03736554  .00001728  00000+0  10160-2 0  9995
2 82893  98.9728 323.0153 0034388 241.5801 118.1901 14.09110069252910
UNKNOWN                 
1 82912U          22236.87717788  .00000256  00000+0  15589-3 0  9993
2 82912  65.8411  43.1792 0811224  97.2133 272.1752 13.15991972420018
UNKNOWN                 
1 82915U          22234.88233083  .00010863  00000+0  14134-2 0  9995
2 82915  74.0145  75.4005 0023906  62.7293 297.6314 14.80522122304824
UNKNOWN                 
1 82959U          22236.45702870  .00000548  00000+0  33663-3 0  9991
2 82959 100.1115 239.5538 0051404 301.0370  58.5755 14.10194056373578
UNKNOWN                 
1 82961U          22236.56530912 -.00000174  00000+0 -29485-3 0  9996
2 82961  99.8202 104.9925 0471243 254.7735 100.0813 12.93374773398179
UNKNOWN                 
1 82965U 70025    22235.86410216  .00000542  00000+0  83925-3 0  9996
2 82965 100.2106 259.5794 0000506  29.5897 330.5268 13.56280414360633
UNKNOWN                 
1 82991U          22232.99136261  .00009847  00000+0  14509-2 0  9995
2 82991  86.3085 128.0404 0034686 275.8124  83.9141 14.74853693307541
UNKNOWN                 
1 83903U          22236.88902025 -.00000112  00000+0  00000+0 0  9995
2 83903   9.1129 302.6335 0132187 214.3759 225.2137  0.99110880 31712
UNKNOWN                 
1 83934U          22237.55333253 -.00000200  00000+0  00000+0 0  9993
2 83934   8.4722 307.9192 0232844 234.4910 110.5715  1.02661457 32905
UNKNOWN                 
1 83952U          22237.00103849 -.00000128  00000+0  27714-3 0  9993
2 83952  20.7481  98.0224 7144368 216.8106  61.6296  2.32172886 56047
UNKNOWN                 
1 83970U          22234.33366260  .00000719  00000+0  44968-3 0  9999
2 83970  18.2681 130.7894 5211773 169.9049 207.0933  5.17032527132722
UNKNOWN                 
1 83975U          22227.59429657 -.00000117  00000+0  00000+0 0  9992
2 83975  19.3718  77.3298 7032817   8.6138 359.0754  2.15335086 56178
UNKNOWN                 
1 84006U          22236.07400895 -.00000039  00000+0  00000+0 0  9997
2 84006  23.7384  48.8702 6131585  16.0431 356.9783  2.16231213 58128
UNKNOWN                 
1 84026U          22237.55161323  .00101849  00000+0  15242-1 0  9999
2 84026  21.8438 323.8869 6031864 190.7136 146.1563  4.00821517 81375
UNKNOWN                 
1 84071U          22237.11085314  .00013702  00000+0  44686-2 0  9991
2 84071  20.4520 235.8071 6976230 262.0792  20.2676  2.66320082 71754
UNKNOWN                 
1 84079U          22232.86985515  .00003332  00000+0  41574-2 0  9999
2 84079  62.7743  62.4732 3971854 180.4080 179.2726  7.08151745218767
UNKNOWN                 
1 84136U          22235.46883736  .00050782  00000+0  26617-2 0  9996
2 84136  51.3732  52.7827 1499604 278.1597  65.2418 12.39235569375127
UNKNOWN                 
1 84170U 12008    22236.79994061  .00006399  00000+0  18358-2 0  9994
2 84170  20.7030 179.7448 6967198 265.2050  19.1508  2.67777441 61411
UNKNOWN                 
1 84188U          22235.92423346 -.00000374  00000+0 -72660-3 0  9995
2 84188  65.0326 308.1131 4761769 115.6767 300.4313  5.71988546166452
UNKNOWN                 
1 84232U 79104    22237.36948628  .00010402  00000+0  12481-1 0  9995
2 84232  20.2584 191.9959 6863825 352.2861   0.8843  2.75738219 68865
UNKNOWN                 
1 84292U          22227.46891602  .00010371  00000+0  22416-2 0  9994
2 84292  23.9269   5.2958 4808220 260.1306  44.4365  5.91414835154005
UNKNOWN                 
1 84346U          22237.07258232  .00010958  00000+0  24408-2 0  9992
2 84346  20.8651 102.0146 6871872  50.6556 352.4349  2.81283902 51741
UNKNOWN                 
1 84406U          22235.17598561  .00000400  00000+0  23852-2 0  9993
2 84406 101.6746 352.4207 0041509 259.8102 220.1280 12.65275291896466
UNKNOWN                 
1 84407U          22237.09789793 -.00000211  00000+0 -18134-1 0  9994
2 84407  19.5926 325.0759 7225490 121.3027 328.2689  2.05767690 51043
UNKNOWN                 
1 84415U          22237.35941721  .00082262  00000+0  43443-2 0  9999
2 84415  23.7376 279.5632 4284793 244.9996  65.0858  6.93785741 25072
UNKNOWN                 
1 84434U          22226.86034776  .00000240  00000+0  16874-2 0  9991
2 84434  20.4020  76.0947 7138181 271.7464  15.1418  2.35294457 57234
UNKNOWN                 
1 84452U          22237.35559767  .00020564  00000+0  11875-2 0  9996
2 84452   2.9321  10.8389 6198872 111.6390 322.9653  3.79922022108277
UNKNOWN                 
1 84480U          22237.41528438  .00001486  00000+0  75989-3 0  9994
2 84480  45.9335  22.4740 4532750 350.6264   3.1273  6.29008417182167
UNKNOWN                 
1 84565U          22233.43454283  .00000856  00000+0  26921-2 0  9993
2 84565   1.9035 132.3155 7219252 185.0178 158.6198  2.28264432 35937
UNKNOWN                 
1 84575U          22237.48035243 -.00000153  00000+0 -47582-3 0  9993
2 84575  18.0824 201.0244 7109038   4.1838 359.3073  2.19811282 38947
UNKNOWN                 
1 84588U          22236.81475907  .00000509  00000+0  25917-3 0  9999
2 84588   2.5654 338.4632 6999533  63.2049 350.3996  2.60687271 75897
UNKNOWN                 
1 84597U          22231.85323418  .00000247  00000+0  11302-2 0  9998
2 84597  18.2607 117.3122 7286149 149.5738 287.7704  2.18208589 42059
UNKNOWN                 
1 84840U          22215.62707156 -.00000612  00000+0  00000+0 0  9998
2 84840  16.5818 347.5841 8150653 282.9748   1.1963  0.46178176   511
UNKNOWN                 
1 84911U          22237.60674437  .00000764  00000+0  10771-1 0  9999
2 84911   1.8136 302.5114 6560044 315.2327  44.3133  2.95826984 94866
UNKNOWN                 
1 84932U          22236.61533017 -.00000185  00000+0 -87312-3 0  9996
2 84932   2.1388 165.6834 6554288 212.8668 328.8554  2.98918086 95633
UNKNOWN                 
1 84950U          22237.47919463 -.00000362  00000+0  00000+0 0  9995
2 84950   2.8048  22.9128 6963232 248.2392 124.3532  2.04213930 65369
UNKNOWN                 
1 84961U          22237.50744428 -.00000339  00000+0  00000+0 0  9992
2 84961   8.4225 296.0498 0148272 230.2991 128.4406  0.98633805 31561
UNKNOWN                 
1 85004U          22237.45043257  .00000250  00000+0  98574-4 0  9996
2 85004  98.2818 225.4617 0050851 176.2058 334.5392 14.36233585458770
UNKNOWN                 
1 85010U          22236.16562361  .00000434  00000+0  53047-3 0  9991
2 85010  99.3475 116.7618 0025158 165.9672 345.4917 13.71326375438332
UNKNOWN                 
1 85011U          22237.16611107  .00007027  00000+0  24471-2 0  9999
2 85011  70.9760 140.1212 0005571 221.3738 138.6974 14.35681354251063
UNKNOWN                 
1 85015U          22237.54756583  .00000108  00000+0  28664-4 0  9996
2 85015  74.0494 179.7175 0013871  32.1871 328.0138 14.59891037466602
UNKNOWN                 
1 85023U          22237.42429487  .00001395  00000+0  57839-3 0  9996
2 85023  99.8677  47.5762 0002389 207.9871 180.9341 14.28533335454896
UNKNOWN                 
1 85027U          22236.52605231  .00000022  00000+0  97830-4 0  9995
2 85027  66.0417 173.0624 0168677 110.7969 251.1256 13.73408866438923
UNKNOWN                 
1 85047U          22237.49324530  .00000574  00000+0  15840-2 0  9995
2 85047 102.4310 330.6885 0202137 108.8630 253.4509 13.12325644416887
UNKNOWN                 
1 85061U          22237.40959185  .00001576  00000+0  70151-2 0  9991
2 85061 102.4082  98.9932 0331526 350.4756 184.5497 12.65539861402683
UNKNOWN                 
1 85100U          22237.40197416  .00000107  00000+0  43274-4 0  9993
2 85100  74.0459 287.7970 0011328  95.9684 277.1116 14.39005191459872
UNKNOWN                 
1 85106U          22237.34362318  .00000275  00000+0  36504-3 0  9990
2 85106 100.1550 260.9092 0009971 191.2818 182.3822 13.70733262437800
UNKNOWN                 
1 85111U 73086    22227.85762603 -.00000244  00000+0 -12949-2 0  9990
2 85111 101.6545 196.8477 0010052 135.2415 224.9469 12.51025194313958
UNKNOWN                 
1 85117U          22234.42981228  .00010922  00000+0  10539-2 0  9994
2 85117  70.0329 256.7900 0049569 121.6218 238.9789 14.92138607419076
UNKNOWN                 
1 85133U          22236.95082974  .00001222  00000+0  54227-3 0  9998
2 85133  98.8628 300.3979 0030053 182.2343 177.8706 14.24697737358987
UNKNOWN                 
1 85151U 86019    22237.27674425  .00001573  00000+0  51112-3 0  9995
2 85151  98.4866  73.2379 0014005 237.9315 122.0514 14.40158367304285
UNKNOWN                 
1 85159U          22235.56797874  .00002240  00000+0  11156-2 0  9998
2 85159  98.8343 140.0620 0082553  87.6152 273.4470 14.16196393327877
UNKNOWN                 
1 85175U          22229.21770668  .00008457  00000+0  15527-2 0  9995
2 85175 101.3615 221.8206 0128520 158.1718 202.5016 14.60858353446862
UNKNOWN                 
1 85205U          22236.44178507  .00000088  00000+0  74138-4 0  9993
2 85205  82.9566 130.2802 0038126  63.4749  61.5304 13.76491919440396
UNKNOWN                 
1 85210U 75052    22236.53572296  .00000554  00000+0  58285-3 0  9993
2 85210  99.7838 337.6955 0227705 163.0579 212.8505 13.68590455437007
